{
  "norad_id": 49164,
  "name": "STARLINK-3106",
  "history": [
    {
      "epoch": "2026-03-28T19:10:10.431840",
      "apogee_km": 574.2088565875747,
      "perigee_km": 569.8939016342874,
      "latitude_deg": 67.73780844175363,
      "longitude_deg": -106.92174240015447,
      "semi_major_axis_km": 6950.188379110931,
      "eccentricity": 0.00031042,
      "inclination_deg": 70.0005,
      "raan_deg": 226.268,
      "arg_perigee_deg": 270.8704,
      "mean_anomaly_deg": 89.2099,
      "mean_motion_rev_day": 14.98331459
    }
  ]
}